     2.100          NAVIGATION                              RINEX VERSION / TYPE
fic2rin                                 05/26/2011 00:12:11 PGM / RUN BY / DATE
                                                            END OF HEADER
32 11  5 25 18  0  0.0 -.260792206973D-03 -.716227077646D-11  .000000000000D+00
     .118000000000D+03  .362187500000D+02  .483305845914D-08  .295541667516D+01
     .180676579475D-05  .121632115915D-01  .508874654770D-05  .515367057419D+04
     .324000000000D+06  .130385160446D-07  .265364279727D+00  .260770320892D-06
     .955332403989D+00  .272875000000D+03 -.785339223891D+00 -.816748306560D-08
     .564309220030D-10  .100000000000D+01  .163700000000D+04  .000000000000D+00
     .340000000000D+01  .000000000000D+00 -.279396772385D-08  .118000000000D+03
     .316806000000D+06  .400000000000D+01
 4 11  5 25 17 59 44.0  .125576741993D-03  .106865627458D-10  .000000000000D+00
     .800000000000D+01  .275312500000D+02  .490270421731D-08  .688163547517D+00
     .160001218319D-05  .955329893623D-02  .960193574429D-05  .515365340424D+04
     .323984000000D+06 -.113621354103D-06 -.867698947258D+00  .108033418655D-06
     .938009578470D+00  .183375000000D+03  .724159650419D+00 -.828605943335D-08
     .632169189527D-10  .100000000000D+01  .163700000000D+04  .000000000000D+00
     .240000000000D+01  .000000000000D+00 -.605359673500D-08  .800000000000D+01
     .317316000000D+06  .400000000000D+01
32 11  5 25 17 59 44.0 -.260791741312D-03 -.716227077646D-11  .000000000000D+00
     .600000000000D+01  .362187500000D+02  .483270130141D-08  .295308321403D+01
     .180676579475D-05  .121632131049D-01  .508874654770D-05  .515367058182D+04
     .323984000000D+06  .130385160446D-07  .265364415779D+00  .260770320892D-06
     .955332409841D+00  .272875000000D+03 -.785339583769D+00 -.816748306560D-08
     .564309220030D-10  .100000000000D+01  .163700000000D+04  .000000000000D+00
     .240000000000D+01  .000000000000D+00 -.279396772385D-08  .600000000000D+01
     .318126000000D+06  .400000000000D+01
13 11  5 25 17 59 44.0  .268494710326D-03 -.216004991671D-11  .000000000000D+00
     .210000000000D+02 -.193750000000D+02  .403802534282D-08 -.155371848007D+01
    -.866129994392D-06  .476655038074D-02  .802055001259D-05  .515359670448D+04
     .323984000000D+06 -.465661287308D-07  .130680454072D+01  .651925802231D-07
     .989557571411D+00  .244031250000D+03  .184675467304D+01 -.784604110482D-08
    -.209651589973D-09  .100000000000D+01  .163700000000D+04  .000000000000D+00
     .240000000000D+01  .000000000000D+00 -.111758708954D-07  .210000000000D+02
     .318456000000D+06  .400000000000D+01
13 11  5 25 19 59 44.0  .268478877842D-03 -.216004991671D-11  .000000000000D+00
     .220000000000D+02 -.183750000000D+02  .397659421254D-08 -.503469051598D+00
    -.120326876640D-05  .476656702813D-02  .793486833572D-05  .515359690094D+04
     .331184000000D+06  .186264514923D-08  .130674741377D+01 -.130385160446D-07
     .989556013403D+00  .244687500000D+03  .184672965568D+01 -.791425823205D-08
    -.159292349451D-09  .100000000000D+01  .163700000000D+04  .000000000000D+00
     .240000000000D+01  .000000000000D+00 -.111758708954D-07  .220000000000D+02
     .324006000000D+06  .400000000000D+01
32 11  5 25 19 59 44.0 -.260843429714D-03 -.716227077646D-11  .000000000000D+00
     .700000000000D+01  .353750000000D+02  .470448167483D-08 -.227990926058D+01
     .211596488953D-05  .121630501235D-01  .534206628799D-05  .515367091179D+04
     .331184000000D+06 -.119209289551D-06  .265305615250D+00  .199303030968D-06
     .955333014026D+00  .274281250000D+03 -.785347805368D+00 -.816033991091D-08
     .950039572962D-10  .100000000000D+01  .163700000000D+04  .000000000000D+00
     .240000000000D+01  .000000000000D+00 -.279396772385D-08  .700000000000D+01
     .324006000000D+06  .400000000000D+01
 2 11  5 25 20  0  0.0  .338298268616D-03  .204636307899D-11  .000000000000D+00
     .400000000000D+02  .226250000000D+02  .480627162908D-08 -.141964933953D+01
     .113248825073D-05  .102814781712D-01  .980868935585D-05  .515376212311D+04
     .331200000000D+06  .558793544769D-08 -.885136224174D+00 -.227242708206D-06
     .938909170684D+00  .179937500000D+03 -.299201114082D+01 -.808819404860D-08
     .214651798252D-09  .100000000000D+01  .163700000000D+04  .000000000000D+00
     .240000000000D+01  .000000000000D+00 -.172294676304D-07  .400000000000D+02
     .324006000000D+06  .400000000000D+01
 3 11  5 25 20  0  0.0  .719837378711D-03  .500222085975D-11  .000000000000D+00
     .190000000000D+02 -.400312500000D+02  .532236455499D-08 -.131468588752D+01
    -.200793147087D-05  .142218872206D-01  .714324414730D-05  .515365352440D+04
     .331200000000D+06  .264495611191D-06 -.204341880126D+01  .309199094772D-06
     .928587663358D+00  .222000000000D+03  .109077093972D+01 -.843785147038D-08
    -.271797035723D-09  .100000000000D+01  .163700000000D+04  .000000000000D+00
     .240000000000D+01  .000000000000D+00 -.465661287308D-08  .190000000000D+02
     .324006000000D+06  .400000000000D+01
 4 11  5 25 20  0  0.0  .125654507428D-03  .106865627458D-10  .000000000000D+00
     .900000000000D+01  .304375000000D+02  .492556231230D-08  .174066066916D+01
     .157020986080D-05  .955393980257D-02  .101123005152D-04  .515365436745D+04
     .331200000000D+06 -.143423676491D-06 -.867758679666D+00  .745058059692D-08
     .938009882757D+00  .175593750000D+03  .724191492294D+00 -.826320133836D-08
     .439304013061D-10  .100000000000D+01  .163700000000D+04  .000000000000D+00
     .240000000000D+01  .000000000000D+00 -.605359673500D-08  .900000000000D+01
     .324006000000D+06  .400000000000D+01
 5 11  5 25 20  0  0.0 -.165046658367D-03 -.568434188608D-11  .000000000000D+00
     .200000000000D+02  .430312500000D+02  .479341395065D-08  .491297641936D+00
     .229291617870D-05  .221849454101D-02  .569969415665D-05  .515367427254D+04
     .331200000000D+06  .111758708954D-07  .176310243229D+00  .223517417908D-07
     .954596266538D+00  .265906250000D+03  .224909669190D+00 -.831320342115D-08
     .123219418298D-09  .100000000000D+01  .163700000000D+04  .000000000000D+00
     .240000000000D+01  .000000000000D+00 -.102445483208D-07  .200000000000D+02
     .324006000000D+06  .400000000000D+01
 6 11  5 25 20  0  0.0  .353758689016D-03 -.896989149624D-10  .000000000000D+00
     .134000000000D+03 -.474062500000D+02  .515628620859D-08  .725319789806D+00
    -.275671482086D-05  .675997987855D-02  .742450356483D-05  .515364199829D+04
     .331200000000D+06  .707805156708D-07 -.196977604058D+01 -.819563865662D-07
     .935673819096D+00  .222718750000D+03 -.789566153057D+00 -.843177978890D-08
    -.276082928534D-09  .100000000000D+01  .163700000000D+04  .000000000000D+00
     .340000000000D+01  .000000000000D+00 -.512227416039D-08  .134000000000D+03
     .324006000000D+06  .400000000000D+01
 7 11  5 25 20  0  0.0  .121537595987D-04  .125055521494D-11  .000000000000D+00
     .470000000000D+02  .129062500000D+02  .421910431406D-08 -.296670209921D+01
     .702217221260D-06  .444293301553D-02  .893510878086D-05  .515366148186D+04
     .331200000000D+06 -.540167093277D-07  .228208772701D+01  .372529029846D-08
     .974502704864D+00  .216656250000D+03 -.313487480064D+01 -.784425531615D-08
     .180364655769D-09  .100000000000D+01  .163700000000D+04  .000000000000D+00
     .240000000000D+01  .000000000000D+00 -.107102096081D-07  .470000000000D+02
     .324006000000D+06  .400000000000D+01
 8 11  5 25 20  0  0.0  .801216810942D-05  .113686837722D-12  .000000000000D+00
     .320000000000D+02  .128125000000D+02  .374122726570D-08  .278652785485D+01
     .687316060066D-06  .115885960404D-01  .913999974728D-05  .515359357262D+04
     .331200000000D+06 -.193715095520D-06  .235757391076D+01  .745058059692D-08
     .996252118608D+00  .224125000000D+03 -.307750631602D+01 -.753388524513D-08
     .220723479733D-09  .100000000000D+01  .163700000000D+04  .000000000000D+00
     .240000000000D+01  .000000000000D+00 -.419095158577D-08  .320000000000D+02
     .324006000000D+06  .400000000000D+01
 9 11  5 25 20  0  0.0  .822036527097D-04  .238742359215D-11  .000000000000D+00
     .960000000000D+02 -.871875000000D+01  .396016495677D-08  .260512525523D+01
    -.491738319397D-06  .173724660417D-01  .842288136482D-05  .515366968918D+04
     .331200000000D+06  .219792127609D-06  .225362771200D+01 -.175088644028D-06
     .983403512464D+00  .223812500000D+03  .156895969020D+01 -.751388441202D-08
     .307155651409D-10  .100000000000D+01  .163700000000D+04  .000000000000D+00
     .240000000000D+01  .000000000000D+00 -.558793544769D-08  .960000000000D+02
     .324006000000D+06  .400000000000D+01
10 11  5 25 20  0  0.0 -.168709084392D-05 -.113686837722D-11  .000000000000D+00
     .850000000000D+02  .401875000000D+02  .499627954367D-08  .730233971553D+00
     .206008553505D-05  .101480359444D-01  .550970435143D-05  .515360751343D+04
     .331200000000D+06 -.109896063805D-06  .199997616738D+00  .108033418655D-06
     .949538389662D+00  .267718750000D+03  .706227352747D+00 -.850856870175D-08
     .250010413937D-11  .100000000000D+01  .163700000000D+04  .000000000000D+00
     .240000000000D+01  .000000000000D+00 -.232830643654D-08  .850000000000D+02
     .324006000000D+06  .400000000000D+01
11 11  5 25 20  0  0.0 -.153896398842D-03 -.318323145621D-11  .000000000000D+00
     .840000000000D+02  .146250000000D+02  .585595820988D-08 -.282123493674D+01
     .676140189171D-06  .117245900910D-01  .978633761406D-05  .515367089272D+04
     .331200000000D+06  .391155481339D-07 -.112235485244D+01 -.651925802231D-07
     .887710386529D+00  .150093750000D+03  .930253025892D+00 -.844428030960D-08
     .653598653579D-10  .100000000000D+01  .163700000000D+04  .000000000000D+00
     .340000000000D+01  .000000000000D+00 -.116415321827D-07  .840000000000D+02
     .324006000000D+06  .400000000000D+01
